{"type": "FeatureCollection", "features": [ {"type": "Feature", "properties": {"norad_id": 35480, "name": "IRIDIUM 33 DEB", "group": "iridium-33-debris", "lat": -85.08742601795136, "lon": -104.9441554907851, "alt_km": 743.4426247066449, "timestamp": "2025-12-07T09:35:10.174818+00:00", "meta": {"OBJECT_NAME": "IRIDIUM 33 DEB", "OBJECT_ID": "1997-051QA", "EPOCH": "2025-12-01T21:29:27.496896", "MEAN_MOTION": 14.49686619, "ECCENTRICITY": 0.00155495, "INCLINATION": 86.3575, "RA_OF_ASC_NODE": 29.6125, "ARG_OF_PERICENTER": 136.7189, "MEAN_ANOMALY": 223.524, "EPHEMERIS_TYPE": 0, "CLASSIFICATION_TYPE": "U", "NORAD_CAT_ID": 35480, "ELEMENT_SET_NO": 999, "REV_AT_EPOCH": 86874, "BSTAR": 0.000651702, "MEAN_MOTION_DOT": 2.53e-05, "MEAN_MOTION_DDOT": 0}, "tle": {"line1": "1 35480U 97051QA  25335.89545714  .00002530  00000+0  65170-3 0  9994", "line2": "2 35480  86.3575  29.6125 0015549 136.7189 223.5240 14.49686619868745"}}, "geometry": {"type": "Point", "coordinates": [-104.9441554907851, -85.08742601795136]}}, {"type": "Feature", "properties": {"norad_id": 35484, "name": "IRIDIUM 33 DEB", "group": "iridium-33-debris", "lat": -36.073823560141264, "lon": 177.90238201973128, "alt_km": 575.4363876516209, "timestamp": "2025-12-07T09:35:10.174829+00:00", "meta": {"OBJECT_NAME": "IRIDIUM 33 DEB", "OBJECT_ID": "1997-051QE", "EPOCH": "2025-12-01T19:32:14.692416", "MEAN_MOTION": 14.97587734, "ECCENTRICITY": 0.00218288, "INCLINATION": 86.3628, "RA_OF_ASC_NODE": 357.8533, "ARG_OF_PERICENTER": 162.6444, "MEAN_ANOMALY": 197.5538, "EPHEMERIS_TYPE": 0, "CLASSIFICATION_TYPE": "U", "NORAD_CAT_ID": 35484, "ELEMENT_SET_NO": 999, "REV_AT_EPOCH": 61852, "BSTAR": 0.0025030806, "MEAN_MOTION_DOT": 0.00029486, "MEAN_MOTION_DDOT": 0}, "tle": {"line1": "1 35484U 97051QE  25335.81405894  .00029486  00000+0  25031-2 0  9994", "line2": "2 35484  86.3628 357.8533 0021828 162.6444 197.5538 14.97587734618526"}}, "geometry": {"type": "Point", "coordinates": [177.90238201973128, -36.073823560141264]}}, {"type": "Feature", "properties": {"norad_id": 35488, "name": "IRIDIUM 33 DEB", "group": "iridium-33-debris", "lat": -82.57035967862325, "lon": 152.85918954992755, "alt_km": 647.229028480414, "timestamp": "2025-12-07T09:35:10.174839+00:00", "meta": {"OBJECT_NAME": "IRIDIUM 33 DEB", "OBJECT_ID": "1997-051QJ", "EPOCH": "2025-12-06T08:06:29.076192", "MEAN_MOTION": 14.82814099, "ECCENTRICITY": 0.00304933, "INCLINATION": 86.3261, "RA_OF_ASC_NODE": 303.8283, "ARG_OF_PERICENTER": 63.1444, "MEAN_ANOMALY": 297.2891, "EPHEMERIS_TYPE": 0, "CLASSIFICATION_TYPE": "U", "NORAD_CAT_ID": 35488, "ELEMENT_SET_NO": 999, "REV_AT_EPOCH": 88171, "BSTAR": 0.0025956954, "MEAN_MOTION_DOT": 0.00021231, "MEAN_MOTION_DDOT": 0}, "tle": {"line1": "1 35488U 97051QJ  25340.33783653  .00021231  00000+0  25957-2 0  9990", "line2": "2 35488  86.3261 303.8283 0030493  63.1444 297.2891 14.82814099881713"}}, "geometry": {"type": "Point", "coordinates": [152.85918954992755, -82.57035967862325]}}, {"type": "Feature", "properties": {"norad_id": 35616, "name": "IRIDIUM 33 DEB", "group": "iridium-33-debris", "lat": 85.05142188804733, "lon": 35.627344275638656, "alt_km": 617.4828325622402, "timestamp": "2025-12-07T09:35:10.174850+00:00", "meta": {"OBJECT_NAME": "IRIDIUM 33 DEB", "OBJECT_ID": "1997-051QN", "EPOCH": "2025-12-06T07:15:38.847744", "MEAN_MOTION": 14.81564916, "ECCENTRICITY": 0.00091957, "INCLINATION": 86.3542, "RA_OF_ASC_NODE": 348.7026, "ARG_OF_PERICENTER": 186.8662, "MEAN_ANOMALY": 173.2436, "EPHEMERIS_TYPE": 0, "CLASSIFICATION_TYPE": "U", "NORAD_CAT_ID": 35616, "ELEMENT_SET_NO": 999, "REV_AT_EPOCH": 87479, "BSTAR": 0.0030438731, "MEAN_MOTION_DOT": 0.00023991, "MEAN_MOTION_DDOT": 0}, "tle": {"line1": "1 35616U 97051QN  25340.30253296  .00023991  00000+0  30439-2 0  9991", "line2": "2 35616  86.3542 348.7026 0009195 186.8662 173.2436 14.81564916874798"}}, "geometry": {"type": "Point", "coordinates": [35.627344275638656, 85.05142188804733]}}, {"type": "Feature", "properties": {"norad_id": 35618, "name": "IRIDIUM 33 DEB", "group": "iridium-33-debris", "lat": 57.237573744681626, "lon": 1.5438134146637343, "alt_km": 692.4450445905195, "timestamp": "2025-12-07T09:35:10.174861+00:00", "meta": {"OBJECT_NAME": "IRIDIUM 33 DEB", "OBJECT_ID": "1997-051QQ", "EPOCH": "2025-12-05T07:42:53.148672", "MEAN_MOTION": 14.52258119, "ECCENTRICITY": 0.00302089, "INCLINATION": 86.3407, "RA_OF_ASC_NODE": 356.7447, "ARG_OF_PERICENTER": 46.3254, "MEAN_ANOMALY": 314.0448, "EPHEMERIS_TYPE": 0, "CLASSIFICATION_TYPE": "U", "NORAD_CAT_ID": 35618, "ELEMENT_SET_NO": 999, "REV_AT_EPOCH": 65286, "BSTAR": 0.00091388234, "MEAN_MOTION_DOT": 3.753e-05, "MEAN_MOTION_DDOT": 0}, "tle": {"line1": "1 35618U 97051QQ  25339.32144848  .00003753  00000+0  91388-3 0  9990", "line2": "2 35618  86.3407 356.7447 0030208  46.3254 314.0448 14.52258119652865"}}, "geometry": {"type": "Point", "coordinates": [1.5438134146637343, 57.237573744681626]}}, {"type": "Feature", "properties": {"norad_id": 35620, "name": "IRIDIUM 33 DEB", "group": "iridium-33-debris", "lat": -43.01380958281938, "lon": -143.67329126543467, "alt_km": 693.9158902810896, "timestamp": "2025-12-07T09:35:10.174871+00:00", "meta": {"OBJECT_NAME": "IRIDIUM 33 DEB", "OBJECT_ID": "1997-051QS", "EPOCH": "2025-12-06T22:05:29.141088", "MEAN_MOTION": 14.37743755, "ECCENTRICITY": 0.01434797, "INCLINATION": 86.3877, "RA_OF_ASC_NODE": 219.9074, "ARG_OF_PERICENTER": 278.1615, "MEAN_ANOMALY": 80.3329, "EPHEMERIS_TYPE": 0, "CLASSIFICATION_TYPE": "U", "NORAD_CAT_ID": 35620, "ELEMENT_SET_NO": 999, "REV_AT_EPOCH": 59882, "BSTAR": 0.0084190173, "MEAN_MOTION_DOT": 0.00028635, "MEAN_MOTION_DDOT": 0}, "tle": {"line1": "1 35620U 97051QS  25340.92047617  .00028635  00000+0  84190-2 0  9995", "line2": "2 35620  86.3877 219.9074 0143479 278.1615  80.3329 14.37743755598820"}}, "geometry": {"type": "Point", "coordinates": [-143.67329126543467, -43.01380958281938]}}, {"type": "Feature", "properties": {"norad_id": 35622, "name": "IRIDIUM 33 DEB", "group": "iridium-33-debris", "lat": -29.47501710568333, "lon": 88.38314695680009, "alt_km": 567.9579341788412, "timestamp": "2025-12-07T09:35:10.174881+00:00", "meta": {"OBJECT_NAME": "IRIDIUM 33 DEB", "OBJECT_ID": "1997-051QU", "EPOCH": "2025-12-06T06:10:47.790912", "MEAN_MOTION": 15.03498314, "ECCENTRICITY": 0.00106929, "INCLINATION": 86.2036, "RA_OF_ASC_NODE": 266.7937, "ARG_OF_PERICENTER": 6.4287, "MEAN_ANOMALY": 145.8832, "EPHEMERIS_TYPE": 0, "CLASSIFICATION_TYPE": "U", "NORAD_CAT_ID": 35622, "ELEMENT_SET_NO": 999, "REV_AT_EPOCH": 87262, "BSTAR": 0.0085488468, "MEAN_MOTION_DOT": 0.00118453, "MEAN_MOTION_DDOT": 0}, "tle": {"line1": "1 35622U 97051QU  25340.25749758  .00118453  00000+0  85488-2 0  9997", "line2": "2 35622  86.2036 266.7937 0010692   6.4287 145.8832 15.03498314872624"}}, "geometry": {"type": "Point", "coordinates": [88.38314695680009, -29.47501710568333]}}, {"type": "Feature", "properties": {"norad_id": 35628, "name": "IRIDIUM 33 DEB", "group": "iridium-33-debris", "lat": 22.225938253072307, "lon": 12.949488295829733, "alt_km": 661.3216140787717, "timestamp": "2025-12-07T09:35:10.174891+00:00", "meta": {"OBJECT_NAME": "IRIDIUM 33 DEB", "OBJECT_ID": "1997-051RA", "EPOCH": "2025-12-04T09:28:36.488064", "MEAN_MOTION": 14.67394134, "ECCENTRICITY": 0.001144, "INCLINATION": 86.3576, "RA_OF_ASC_NODE": 12.797, "ARG_OF_PERICENTER": 12.0998, "MEAN_ANOMALY": 348.0488, "EPHEMERIS_TYPE": 0, "CLASSIFICATION_TYPE": "U", "NORAD_CAT_ID": 35628, "ELEMENT_SET_NO": 999, "REV_AT_EPOCH": 86324, "BSTAR": 0.0032445, "MEAN_MOTION_DOT": 0.00018408, "MEAN_MOTION_DDOT": 0}, "tle": {"line1": "1 35628U 97051RA  25338.39486676  .00018408  00000+0  32445-2 0  9996", "line2": "2 35628  86.3576  12.7970 0011440  12.0998 348.0488 14.67394134863246"}}, "geometry": {"type": "Point", "coordinates": [12.949488295829733, 22.225938253072307]}}, {"type": "Feature", "properties": {"norad_id": 35631, "name": "IRIDIUM 33 DEB", "group": "iridium-33-debris", "lat": -53.518154756041824, "lon": 18.349535411145354, "alt_km": 754.6707702654821, "timestamp": "2025-12-07T09:35:10.174902+00:00", "meta": {"OBJECT_NAME": "IRIDIUM 33 DEB", "OBJECT_ID": "1997-051RD", "EPOCH": "2025-12-06T21:23:47.071392", "MEAN_MOTION": 14.47286545, "ECCENTRICITY": 0.00185223, "INCLINATION": 86.3689, "RA_OF_ASC_NODE": 23.4943, "ARG_OF_PERICENTER": 135.5581, "MEAN_ANOMALY": 46.1978, "EPHEMERIS_TYPE": 0, "CLASSIFICATION_TYPE": "U", "NORAD_CAT_ID": 35631, "ELEMENT_SET_NO": 999, "REV_AT_EPOCH": 87112, "BSTAR": 0.00062002851, "MEAN_MOTION_DOT": 2.292e-05, "MEAN_MOTION_DDOT": 0}, "tle": {"line1": "1 35631U 97051RD  25340.89151703  .00002292  00000+0  62003-3 0  9996", "line2": "2 35631  86.3689  23.4943 0018522 135.5581  46.1978 14.47286545871121"}}, "geometry": {"type": "Point", "coordinates": [18.349535411145354, -53.518154756041824]}}, {"type": "Feature", "properties": {"norad_id": 35680, "name": "IRIDIUM 33 DEB", "group": "iridium-33-debris", "lat": 66.03540589106592, "lon": 32.711956282948066, "alt_km": 886.3234714790697, "timestamp": "2025-12-07T09:35:10.174912+00:00", "meta": {"OBJECT_NAME": "IRIDIUM 33 DEB", "OBJECT_ID": "1997-051RJ", "EPOCH": "2025-12-06T09:39:51.736896", "MEAN_MOTION": 14.20748737, "ECCENTRICITY": 0.01506079, "INCLINATION": 86.1022, "RA_OF_ASC_NODE": 24.3298, "ARG_OF_PERICENTER": 298.7228, "MEAN_ANOMALY": 71.4349, "EPHEMERIS_TYPE": 0, "CLASSIFICATION_TYPE": "U", "NORAD_CAT_ID": 35680, "ELEMENT_SET_NO": 999, "REV_AT_EPOCH": 60611, "BSTAR": 0.0059192818, "MEAN_MOTION_DOT": 0.00014348, "MEAN_MOTION_DDOT": 0}, "tle": {"line1": "1 35680U 97051RJ  25340.40268214  .00014348  00000+0  59193-2 0  9993", "line2": "2 35680  86.1022  24.3298 0150607 298.7228  71.4349 14.20748737606113"}}, "geometry": {"type": "Point", "coordinates": [32.711956282948066, 66.03540589106592]}}]}